OBJECT_NAME,OBJECT_ID,EPOCH,MEAN_MOTION,ECCENTRICITY,INCLINATION,RA_OF_ASC_NODE,ARG_OF_PERICENTER,MEAN_ANOMALY,EPHEMERIS_TYPE,CLASSIFICATION_TYPE,NORAD_CAT_ID,ELEMENT_SET_NO,REV_AT_EPOCH,BSTAR,MEAN_MOTION_DOT,MEAN_MOTION_DDOT
M2 PATHFINDER,2020-037E,2026-07-16T02:33:31.248288,15.04792666,.0012835,97.8141,28.6655,59.7504,300.4991,0,U,45727,999,32984,.46975E-4,.599E-5,0
NETSAT-4,2020-068U,2026-07-16T00:33:18.501120,15.44774366,.0004856,97.8601,207.6014,190.4966,169.6181,0,U,46504,999,32022,.22656E-3,.10507E-3,0
NETSAT-3,2020-068V,2026-07-15T23:40:17.217696,15.43625105,.0003928,97.8652,205.7431,207.3174,152.7867,0,U,46505,999,32012,.23934E-3,.10678E-3,0
NETSAT-1,2020-068W,2026-07-15T22:46:59.456928,15.35255548,.0002502,97.8751,199.6882,257.3559,102.7403,0,U,46506,999,31971,.20129E-3,.6801E-4,0
NETSAT-2,2020-068X,2026-07-16T03:36:06.670080,15.47189152,.0002289,97.8611,207.7451,203.9822,156.1320,0,U,46507,999,32021,.26002E-3,.13117E-3,0
GREENCUBE (IO-117),2022-080E,2026-07-15T04:46:20.871552,6.42583355,.00090693,70.1411,288.5050,283.3508,76.6141,0,U,53109,999,9386,0,-.3E-7,0
SITRO-AIS 5 (KATYS),2023-091L,2026-07-16T04:15:58.287744,15.30076618,.0010548,97.5044,261.3633,9.0325,351.1103,0,U,57176,999,16877,.20799E-3,.5985E-4,0
SITRO-AIS 6 (CHIRKIN),2023-091AC,2026-07-16T03:49:02.654400,15.26447314,.001107,97.5052,260.3074,13.2402,346.9124,0,U,57192,999,16870,.18598E-3,.4779E-4,0
SITRO-AIS 8 (ANOKHIN),2023-091AD,2026-07-16T03:25:54.645312,15.32873152,.0009432,97.5041,263.0375,4.8039,355.3291,0,U,57193,999,16888,.25987E-3,.8181E-4,0
SITRO-AIS 7 (FARTUSHNIY),2023-091AE,2026-07-16T04:02:17.503296,15.26121151,.0011038,97.5048,260.1262,14.4898,345.6654,0,U,57194,999,16869,.18664E-3,.4749E-4,0
SITRO-AIS 10 (BURDAEV),2023-091AK,2026-07-16T04:19:04.425312,15.39650022,.0004764,97.5067,268.4353,337.0560,23.0472,0,U,57199,999,16922,.26752E-3,.10471E-3,0
SITRO-AIS 9 (SHCHUKIN),2023-091AM,2026-07-16T03:37:06.084768,15.39134362,.0005049,97.5066,268.1123,337.7377,22.3648,0,U,57201,999,16920,.29769E-3,.11468E-3,0
SITRO-AIS 12 (SMIRENNIY),2023-091AQ,2026-07-16T03:15:38.860416,15.39430230,.000462,97.5079,268.5824,329.9006,30.1974,0,U,57204,999,16922,.28961E-3,.11262E-3,0
SITRO-AIS 11 (SHEFFER),2023-091AU,2026-07-16T03:23:12.302304,15.39874060,.0004506,97.5078,268.8528,329.1668,30.9312,0,U,57208,999,16924,.29701E-3,.11722E-3,0
SITRO-AIS 25,2024-039R,2026-07-16T04:25:58.090368,14.93646047,.0142857,95.3891,255.0188,226.0197,132.9179,0,U,59066,999,12905,.14323E-3,.1814E-4,0
SITRO-AIS 26,2024-039S,2026-07-16T04:33:41.999616,14.93437675,.0143191,95.3892,254.9141,226.6219,132.3010,0,U,59067,999,12904,.12911E-3,.1623E-4,0
SITRO-AIS 27,2024-039T,2026-07-16T05:15:32.035392,14.93861340,.0142269,95.3897,255.2194,225.0273,133.9350,0,U,59068,999,12907,.10471E-3,.1322E-4,0
SITRO-AIS 28,2024-039U,2026-07-16T04:42:07.136352,14.93896194,.0142159,95.3895,255.2523,224.9598,134.0048,0,U,59071,999,12907,.12372E-3,.157E-4,0
GRBBETA,2024-128C,2026-07-16T03:43:02.965152,15.06811859,.0036924,61.9898,114.6191,140.8564,219.5211,0,U,60237,999,11063,.1211E-3,.1617E-4,0
OOV-CUBE (TUBSAT-30),2024-128F,2026-07-16T04:45:53.037792,15.02875959,.004098,61.9938,124.4033,140.2429,220.1678,0,U,60240,999,11047,.83086E-4,.923E-5,0
ROBUSTA-3A (MEDITERRANEE),2024-128J,2026-07-16T04:05:28.733280,15.11994772,.0037997,61.9865,105.7246,133.9239,226.5003,0,U,60243,999,11080,.22319E-3,.3687E-4,0
LASARSAT,2024-247Q,2026-07-16T02:15:08.659008,15.48082110,.0007476,44.9739,99.5612,171.6523,188.4493,0,U,62391,999,8779,.391E-3,.20669E-3,0
CROCUBE,2024-247T,2026-07-16T02:50:28.917600,15.50241694,.0007681,44.9721,96.2522,178.5471,181.5444,0,U,62394,999,8783,.43576E-3,.24938E-3,0
FORESAIL-1 PRIME,2025-276DS,2026-07-16T04:22:38.496000,15.18942774,.0002808,97.4192,269.9251,42.1880,317.9571,0,U,66778,999,3480,.1076E-3,.218E-4,0
KNACKSAT-2,1998-067XZ,2026-07-16T02:09:51.604704,15.62464930,.0007936,51.6274,148.8130,330.8548,29.2002,0,U,67683,999,2479,.38453E-3,.34521E-3,0
